SWARM B                 
1 39451U 13067A   26166.95543696  .00002938  00000+0  10459-3 0  9990
2 39451  87.7435 342.6909 0003302  85.9353 274.2273 15.28544960683055
SWARM A                 
1 39452U 13067B   26166.86469280  .00008747  00000+0  15039-3 0  9990
2 39452  87.3328  56.7336 0003001  95.0027 265.1577 15.50931823706040
SWARM C                 
1 39453U 13067C   26166.92910151  .00008982  00000+0  15446-3 0  9999
2 39453  87.3327  55.2906 0002978  94.4156 265.7445 15.50931577706018
BRITE-CA1 (TORONTO)     
1 40020U 14033L   26166.88272711  .00000607  00000+0  99044-4 0  9996
2 40020  97.9737 295.8347 0077232 281.2710  77.9825 14.72675112642028
OCO 2                   
1 40059U 14035A   26166.91942921  .00000345  00000+0  86510-4 0  9994
2 40059  98.2018 108.2317 0001498  85.6791 274.4579 14.57110378635861
BRITE-PL2 (HEWELIUSZ)   
1 40119U 14049B   26166.90031847  .00001426  00000+0  13704-3 0  9996
2 40119  97.9096 278.8904 0015239 112.2848 247.9990 14.94589495641257
MMS 1                   
1 40482U 15011A   26166.91668981 -.00000699  00000+0  00000+0 0  9998
2 40482  72.1880 348.7754 8321930 167.4119 168.8190  0.28354708  1370
MMS 2                   
1 40483U 15011B   26166.91668981 -.00000699  00000+0  00000+0 0  9999
2 40483  72.1881 348.7776 8322714 167.4175 168.8077  0.28354729  1376
MMS 3                   
1 40484U 15011C   26166.91668981 -.00000699  00000+0  00000+0 0  9990
2 40484  72.1873 348.7779 8321507 167.4198 168.7918  0.28354680  1374
MMS 4                   
1 40485U 15011D   26166.91668981 -.00000699  00000+0  00000+0 0  9991
2 40485  72.1873 348.7779 8321507 167.4198 168.7918  0.28354680  1375
ASTROSAT                
1 40930U 15052A   26166.54418907  .00001433  00000+0  92749-4 0  9993
2 40930   5.9956 167.1769 0007813   7.2508 352.7733 14.82504818579585
DAMPE                   
1 41173U 15078A   26166.99178282  .00001397  00000+0  49461-4 0  9991
2 41173  97.4551 172.4524 0013812  81.0545 279.2258 15.30783800584368
PISAT                   
1 41784U 16059B   26166.98604561  .00000730  00000+0  13186-3 0  9996
2 41784  97.8179 167.4904 0028287 206.7001 153.2750 14.68981716519561
HXMT (HUIYAN)           
1 42758U 17034A   26166.95033583  .00002493  00000+0  12903-3 0  9993
2 42758  43.0126 189.9283 0030458 139.0777 221.2365 15.18471621497476
FLYING LAPTOP           
1 42831U 17042G   26166.98568359  .00002966  00000+0  23513-3 0  9995
2 42831  97.4677 322.5642 0019509 125.5678 234.7368 15.01139202486276
ZHANGHENG 1-01 (CSES-1) 
1 43194U 18015C   26166.95465366  .00005770  00000+0  26411-3 0  9996
2 43194  97.6865 332.5873 0017042 271.0802  88.8480 15.20797561464451
SALSAT                  
1 46495U 20068K   26166.77190721  .00006667  00000+0  23385-3 0  9997
2 46495  97.8844 169.7502 0008124 314.2855  45.7717 15.29782498315143
IXPE                    
1 49954U 21121A   26166.91668981  .00009577  00000+0  51317-3 0  9994
2 49954   0.2318 327.1226 0006973  61.3375 166.4381 15.10242203  5374
SMILE                   
1 69123U 26109A   26144.65318427 -.00001976  00000+0 -42379-3 0  9994
2 69123  70.0007 229.2745 0009123 259.5159 100.4951 14.57062785   802
